{
  "type": "FeatureCollection",
  "features": [
    {
      "type": "Feature",
      "properties": {
        "norad_id": 66921,
        "name": "HULIANWANG DIGUI 14G",
        "group": "last-30-days",
        "lat": 11.588751492761162,
        "lon": -58.68459996640343,
        "alt_km": 874.8323237465629,
        "timestamp": "2025-12-09T07:41:31.974187+00:00",
        "meta_object_name": "HULIANWANG DIGUI 14G",
        "meta_object_id": "2025-285G",
        "meta_epoch": "2025-12-08T22:22:53.571072",
        "meta_mean_motion": 14.05882278,
        "meta_eccentricity": 0.00069576,
        "meta_inclination": 50.0104,
        "meta_ra_of_asc_node": 132.812,
        "meta_arg_of_pericenter": 282.2806,
        "meta_mean_anomaly": 77.732,
        "meta_ephemeris_type": 0,
        "meta_classification_type": "U",
        "meta_norad_cat_id": 66921,
        "meta_element_set_no": 999,
        "meta_rev_at_epoch": 37,
        "meta_bstar": 1.4028174e-05,
        "meta_mean_motion_dot": -1.29e-06,
        "meta_mean_motion_ddot": 0,
        "tle_line1": "1 66921U 25285G   25342.93256448 -.00000129  00000+0  14028-4 0  9994",
        "tle_line2": "2 66921  50.0104 132.8120 0006957 282.2806  77.7320 14.05882278   379"
      },
      "geometry": {
        "type": "Point",
        "coordinates": [
          -58.68459996640343,
          11.588751492761162
        ]
      }
    },
    {
      "type": "Feature",
      "properties": {
        "norad_id": 66922,
        "name": "HULIANWANG DIGUI 14H",
        "group": "last-30-days",
        "lat": 10.677493960281057,
        "lon": -57.88536347638495,
        "alt_km": 874.9331341787574,
        "timestamp": "2025-12-09T07:41:31.974199+00:00",
        "meta_object_name": "HULIANWANG DIGUI 14H",
        "meta_object_id": "2025-285H",
        "meta_epoch": "2025-12-08T22:22:35.887584",
        "meta_mean_motion": 14.05997578,
        "meta_eccentricity": 0.00069127,
        "meta_inclination": 50.0077,
        "meta_ra_of_asc_node": 132.8078,
        "meta_arg_of_pericenter": 288.5504,
        "meta_mean_anomaly": 71.465,
        "meta_ephemeris_type": 0,
        "meta_classification_type": "U",
        "meta_norad_cat_id": 66922,
        "meta_element_set_no": 999,
        "meta_rev_at_epoch": 37,
        "meta_bstar": -8.90457e-06,
        "meta_mean_motion_dot": -1.67e-06,
        "meta_mean_motion_ddot": 0,
        "tle_line1": "1 66922U 25285H   25342.93235981 -.00000167  00000+0 -89046-5 0  9990",
        "tle_line2": "2 66922  50.0077 132.8078 0006912 288.5504  71.4650 14.05997578   373"
      },
      "geometry": {
        "type": "Point",
        "coordinates": [
          -57.88536347638495,
          10.677493960281057
        ]
      }
    },
    {
      "type": "Feature",
      "properties": {
        "norad_id": 66923,
        "name": "HULIANWANG DIGUI 14J",
        "group": "last-30-days",
        "lat": 8.470637152125954,
        "lon": -55.96651616714188,
        "alt_km": 872.4342967948423,
        "timestamp": "2025-12-09T07:41:31.974211+00:00",
        "meta_object_name": "HULIANWANG DIGUI 14J",
        "meta_object_id": "2025-285J",
        "meta_epoch": "2025-12-07T22:29:36.786048",
        "meta_mean_motion": 14.06515715,
        "meta_eccentricity": 0.00053876,
        "meta_inclination": 50.0075,
        "meta_ra_of_asc_node": 136.8754,
        "meta_arg_of_pericenter": 280.8946,
        "meta_mean_anomaly": 79.1354,
        "meta_ephemeris_type": 0,
        "meta_classification_type": "U",
        "meta_norad_cat_id": 66923,
        "meta_element_set_no": 999,
        "meta_rev_at_epoch": 23,
        "meta_bstar": -4.7305e-07,
        "meta_mean_motion_dot": -1.53e-06,
        "meta_mean_motion_ddot": 0,
        "tle_line1": "1 66923U 25285J   25341.93723132 -.00000153  00000+0 -47305-6 0  9998",
        "tle_line2": "2 66923  50.0075 136.8754 0005387 280.8946  79.1354 14.06515715   238"
      },
      "geometry": {
        "type": "Point",
        "coordinates": [
          -55.96651616714188,
          8.470637152125954
        ]
      }
    },
    {
      "type": "Feature",
      "properties": {
        "norad_id": 66924,
        "name": "CZ-8A R/B",
        "group": "last-30-days",
        "lat": 43.81938969233259,
        "lon": -175.6274830550426,
        "alt_km": 709.5749489657182,
        "timestamp": "2025-12-09T07:41:31.974233+00:00",
        "meta_object_name": "CZ-8A R/B",
        "meta_object_id": "2025-285K",
        "meta_epoch": "2025-12-08T19:39:29.828736",
        "meta_mean_motion": 14.3049934,
        "meta_eccentricity": 0.01193374,
        "meta_inclination": 50.0061,
        "meta_ra_of_asc_node": 132.8436,
        "meta_arg_of_pericenter": 92.9076,
        "meta_mean_anomaly": 268.5504,
        "meta_ephemeris_type": 0,
        "meta_classification_type": "U",
        "meta_norad_cat_id": 66924,
        "meta_element_set_no": 999,
        "meta_rev_at_epoch": 36,
        "meta_bstar": 4.1548951e-05,
        "meta_mean_motion_dot": -5e-07,
        "meta_mean_motion_ddot": 0,
        "tle_line1": "1 66924U 25285K   25342.81909524 -.00000050  00000+0  41549-4 0  9995",
        "tle_line2": "2 66924  50.0061 132.8436 0119337  92.9076 268.5504 14.30499340   361"
      },
      "geometry": {
        "type": "Point",
        "coordinates": [
          -175.6274830550426,
          43.81938969233259
        ]
      }
    }
  ]
}